ONEWEB-0290             
1 49080U 21075F   25302.33252147  .00000083  00000+0  18009-3 0  9996
2 49080  87.9126  51.7475 0002339 102.5649 257.5744 13.17649807203217
ONEWEB-0291             
1 49081U 21075G   25302.54514252  .00000126  00000+0  29099-3 0  9997
2 49081  87.9128  51.7112 0001794  88.4228 271.7109 13.17650186203234
ONEWEB-0293             
1 49082U 21075H   25302.34264341  .00000086  00000+0  18837-3 0  9990
2 49082  87.9118  51.7762 0001833  99.3591 260.7748 13.17649748203232
ONEWEB-0294             
1 49083U 21075J   25301.56844872  .00000469  00000+0  12687-2 0  9998
2 49083  87.8973  36.6661 0002248  96.7256 263.4128 13.12444172204198
ONEWEB-0295             
1 49084U 21075K   25302.34179060  .00000122  00000+0  28223-3 0  9996
2 49084  87.9115  51.7810 0001682  87.8562 272.2762 13.17647197203192
ONEWEB-0296             
1 49085U 21075L   25302.54007347  .00000703  00000+0  19187-2 0  9990
2 49085  87.8970  36.4787 0001941  87.0818 273.0532 13.12439969204329
ONEWEB-0297             
1 49086U 21075M   25302.49464601  .00000379  00000+0  10190-2 0  9999
2 49086  87.8963  36.5223 0001687  99.5707 260.5613 13.12443732204920
ONEWEB-0298             
1 49087U 21075N   25302.34615530  .00000090  00000+0  19972-3 0  9991
2 49087  87.9120  51.7764 0001639 101.8835 258.2480 13.17649990203229
ONEWEB-0299             
1 49088U 21075P   25302.34770657  .00000134  00000+0  31084-3 0  9991
2 49088  87.9128  51.7342 0001567  95.3670 264.7640 13.17648864203201
ONEWEB-0300             
1 49089U 21075Q   25302.18159286  .00000455  00000+0  12281-2 0  9996
2 49089  87.8972  36.5406 0001532 110.5000 249.6293 13.12443985204905
ONEWEB-0301             
1 49090U 21075R   25302.54656345  .00000164  00000+0  42027-3 0  9995
2 49090  87.8969  36.4713 0001525 114.1374 245.9915 13.12444922204316
ONEWEB-0302             
1 49091U 21075S   25302.53356436 -.00000304  00000+0 -87909-3 0  9999
2 49091  87.8971  36.4814 0002051  94.9894 265.1469 13.12442777204290
ONEWEB-0304             
1 49092U 21075T   25302.55020370  .00000136  00000+0  31625-3 0  9992
2 49092  87.9130  51.7249 0001672  95.6370 264.4952 13.17650228203202
ONEWEB-0305             
1 49093U 21075U   25302.54345113  .00000108  00000+0  24434-3 0  9996
2 49093  87.9130  51.7030 0001546  86.2489 273.8819 13.17650890203232
ONEWEB-0308             
1 49094U 21075V   25302.52707605 -.00000392  00000+0 -11254-2 0  9995
2 49094  87.8978  36.4754 0001757 102.8086 257.3239 13.12441132204301
ONEWEB-0309             
1 49095U 21075W   25302.54682753  .00000119  00000+0  27245-3 0  9997
2 49095  87.9126  51.7186 0002102  94.2387 265.8985 13.17649422203207
ONEWEB-0310             
1 49096U 21075X   25302.54169122  .00000085  00000+0  19963-3 0  9998
2 49096  87.8966  36.5128 0001869  99.0038 261.1302 13.12444250204931
