[{"OBJECT_NAME":"ONEWEB-0290","OBJECT_ID":"2021-075F","EPOCH":"2025-10-29T07:58:49.855008","MEAN_MOTION":13.17649807,"ECCENTRICITY":0.0002339,"INCLINATION":87.9126,"RA_OF_ASC_NODE":51.7475,"ARG_OF_PERICENTER":102.5649,"MEAN_ANOMALY":257.5744,"EPHEMERIS_TYPE":0,"CLASSIFICATION_TYPE":"U","NORAD_CAT_ID":49080,"ELEMENT_SET_NO":999,"REV_AT_EPOCH":20321,"BSTAR":0.00018009,"MEAN_MOTION_DOT":8.3e-7,"MEAN_MOTION_DDOT":0},{"OBJECT_NAME":"ONEWEB-0291","OBJECT_ID":"2021-075G","EPOCH":"2025-10-29T13:05:00.313728","MEAN_MOTION":13.17650186,"ECCENTRICITY":0.0001794,"INCLINATION":87.9128,"RA_OF_ASC_NODE":51.7112,"ARG_OF_PERICENTER":88.4228,"MEAN_ANOMALY":271.7109,"EPHEMERIS_TYPE":0,"CLASSIFICATION_TYPE":"U","NORAD_CAT_ID":49081,"ELEMENT_SET_NO":999,"REV_AT_EPOCH":20323,"BSTAR":0.00029099,"MEAN_MOTION_DOT":1.26e-6,"MEAN_MOTION_DDOT":0},{"OBJECT_NAME":"ONEWEB-0293","OBJECT_ID":"2021-075H","EPOCH":"2025-10-29T08:13:24.390624","MEAN_MOTION":13.17649748,"ECCENTRICITY":0.0001833,"INCLINATION":87.9118,"RA_OF_ASC_NODE":51.7762,"ARG_OF_PERICENTER":99.3591,"MEAN_ANOMALY":260.7748,"EPHEMERIS_TYPE":0,"CLASSIFICATION_TYPE":"U","NORAD_CAT_ID":49082,"ELEMENT_SET_NO":999,"REV_AT_EPOCH":20323,"BSTAR":0.00018837,"MEAN_MOTION_DOT":8.6e-7,"MEAN_MOTION_DDOT":0},{"OBJECT_NAME":"ONEWEB-0294","OBJECT_ID":"2021-075J","EPOCH":"2025-10-28T13:38:33.969408","MEAN_MOTION":13.12444172,"ECCENTRICITY":0.00022482,"INCLINATION":87.8973,"RA_OF_ASC_NODE":36.6661,"ARG_OF_PERICENTER":96.7256,"MEAN_ANOMALY":263.4128,"EPHEMERIS_TYPE":0,"CLASSIFICATION_TYPE":"U","NORAD_CAT_ID":49083,"ELEMENT_SET_NO":999,"REV_AT_EPOCH":20419,"BSTAR":0.0012687407,"MEAN_MOTION_DOT":4.69e-6,"MEAN_MOTION_DDOT":0},{"OBJECT_NAME":"ONEWEB-0295","OBJECT_ID":"2021-075K","EPOCH":"2025-10-29T08:12:10.707840","MEAN_MOTION":13.17647197,"ECCENTRICITY":0.0001682,"INCLINATION":87.9115,"RA_OF_ASC_NODE":51.781,"ARG_OF_PERICENTER":87.8562,"MEAN_ANOMALY":272.2762,"EPHEMERIS_TYPE":0,"CLASSIFICATION_TYPE":"U","NORAD_CAT_ID":49084,"ELEMENT_SET_NO":999,"REV_AT_EPOCH":20319,"BSTAR":0.00028223,"MEAN_MOTION_DOT":1.22e-6,"MEAN_MOTION_DDOT":0},{"OBJECT_NAME":"ONEWEB-0296","OBJECT_ID":"2021-075L","EPOCH":"2025-10-29T12:57:42.347808","MEAN_MOTION":13.12439969,"ECCENTRICITY":0.0001941,"INCLINATION":87.897,"RA_OF_ASC_NODE":36.4787,"ARG_OF_PERICENTER":87.0818,"MEAN_ANOMALY":273.0532,"EPHEMERIS_TYPE":0,"CLASSIFICATION_TYPE":"U","NORAD_CAT_ID":49085,"ELEMENT_SET_NO":999,"REV_AT_EPOCH":20432,"BSTAR":0.0019187,"MEAN_MOTION_DOT":7.03e-6,"MEAN_MOTION_DDOT":0},{"OBJECT_NAME":"ONEWEB-0297","OBJECT_ID":"2021-075M","EPOCH":"2025-10-29T11:52:17.415264","MEAN_MOTION":13.12443732,"ECCENTRICITY":0.0001687,"INCLINATION":87.8963,"RA_OF_ASC_NODE":36.5223,"ARG_OF_PERICENTER":99.5707,"MEAN_ANOMALY":260.5613,"EPHEMERIS_TYPE":0,"CLASSIFICATION_TYPE":"U","NORAD_CAT_ID":49086,"ELEMENT_SET_NO":999,"REV_AT_EPOCH":20492,"BSTAR":0.001019,"MEAN_MOTION_DOT":3.79e-6,"MEAN_MOTION_DDOT":0},{"OBJECT_NAME":"ONEWEB-0298","OBJECT_ID":"2021-075N","EPOCH":"2025-10-29T08:18:27.817920","MEAN_MOTION":13.1764999,"ECCENTRICITY":0.0001639,"INCLINATION":87.912,"RA_OF_ASC_NODE":51.7764,"ARG_OF_PERICENTER":101.8835,"MEAN_ANOMALY":258.248,"EPHEMERIS_TYPE":0,"CLASSIFICATION_TYPE":"U","NORAD_CAT_ID":49087,"ELEMENT_SET_NO":999,"REV_AT_EPOCH":20322,"BSTAR":0.00019972,"MEAN_MOTION_DOT":9.0e-7,"MEAN_MOTION_DDOT":0},{"OBJECT_NAME":"ONEWEB-0299","OBJECT_ID":"2021-075P","EPOCH":"2025-10-29T08:20:41.847648","MEAN_MOTION":13.17648864,"ECCENTRICITY":0.0001567,"INCLINATION":87.9128,"RA_OF_ASC_NODE":51.7342,"ARG_OF_PERICENTER":95.367,"MEAN_ANOMALY":264.764,"EPHEMERIS_TYPE":0,"CLASSIFICATION_TYPE":"U","NORAD_CAT_ID":49088,"ELEMENT_SET_NO":999,"REV_AT_EPOCH":20320,"BSTAR":0.00031084,"MEAN_MOTION_DOT":1.34e-6,"MEAN_MOTION_DDOT":0},{"OBJECT_NAME":"ONEWEB-0300","OBJECT_ID":"2021-075Q","EPOCH":"2025-10-29T04:21:29.623104","MEAN_MOTION":13.12443985,"ECCENTRICITY":0.0001532,"INCLINATION":87.8972,"RA_OF_ASC_NODE":36.5406,"ARG_OF_PERICENTER":110.5,"MEAN_ANOMALY":249.6293,"EPHEMERIS_TYPE":0,"CLASSIFICATION_TYPE":"U","NORAD_CAT_ID":49089,"ELEMENT_SET_NO":999,"REV_AT_EPOCH":20490,"BSTAR":0.0012281,"MEAN_MOTION_DOT":4.55e-6,"MEAN_MOTION_DDOT":0},{"OBJECT_NAME":"ONEWEB-0301","OBJECT_ID":"2021-075R","EPOCH":"2025-10-29T13:07:03.082080","MEAN_MOTION":13.12444922,"ECCENTRICITY":0.0001525,"INCLINATION":87.8969,"RA_OF_ASC_NODE":36.4713,"ARG_OF_PERICENTER":114.1374,"MEAN_ANOMALY":245.9915,"EPHEMERIS_TYPE":0,"CLASSIFICATION_TYPE":"U","NORAD_CAT_ID":49090,"ELEMENT_SET_NO":999,"REV_AT_EPOCH":20431,"BSTAR":0.00042027,"MEAN_MOTION_DOT":1.64e-6,"MEAN_MOTION_DDOT":0},{"OBJECT_NAME":"ONEWEB-0302","OBJECT_ID":"2021-075S","EPOCH":"2025-10-29T12:48:19.960704","MEAN_MOTION":13.12442777,"ECCENTRICITY":0.0002051,"INCLINATION":87.8971,"RA_OF_ASC_NODE":36.4814,"ARG_OF_PERICENTER":94.9894,"MEAN_ANOMALY":265.1469,"EPHEMERIS_TYPE":0,"CLASSIFICATION_TYPE":"U","NORAD_CAT_ID":49091,"ELEMENT_SET_NO":999,"REV_AT_EPOCH":20429,"BSTAR":-0.00087909,"MEAN_MOTION_DOT":-3.04e-6,"MEAN_MOTION_DDOT":0},{"OBJECT_NAME":"ONEWEB-0304","OBJECT_ID":"2021-075T","EPOCH":"2025-10-29T13:12:17.599680","MEAN_MOTION":13.17650228,"ECCENTRICITY":0.0001672,"INCLINATION":87.913,"RA_OF_ASC_NODE":51.7249,"ARG_OF_PERICENTER":95.637,"MEAN_ANOMALY":264.4952,"EPHEMERIS_TYPE":0,"CLASSIFICATION_TYPE":"U","NORAD_CAT_ID":49092,"ELEMENT_SET_NO":999,"REV_AT_EPOCH":20320,"BSTAR":0.00031625,"MEAN_MOTION_DOT":1.36e-6,"MEAN_MOTION_DDOT":0},{"OBJECT_NAME":"ONEWEB-0305","OBJECT_ID":"2021-075U","EPOCH":"2025-10-29T13:02:34.177632","MEAN_MOTION":13.1765089,"ECCENTRICITY":0.0001546,"INCLINATION":87.913,"RA_OF_ASC_NODE":51.703,"ARG_OF_PERICENTER":86.2489,"MEAN_ANOMALY":273.8819,"EPHEMERIS_TYPE":0,"CLASSIFICATION_TYPE":"U","NORAD_CAT_ID":49093,"ELEMENT_SET_NO":999,"REV_AT_EPOCH":20323,"BSTAR":0.00024434,"MEAN_MOTION_DOT":1.08e-6,"MEAN_MOTION_DDOT":0},{"OBJECT_NAME":"ONEWEB-0308","OBJECT_ID":"2021-075V","EPOCH":"2025-10-29T12:38:59.370720","MEAN_MOTION":13.12441132,"ECCENTRICITY":0.0001757,"INCLINATION":87.8978,"RA_OF_ASC_NODE":36.4754,"ARG_OF_PERICENTER":102.8086,"MEAN_ANOMALY":257.3239,"EPHEMERIS_TYPE":0,"CLASSIFICATION_TYPE":"U","NORAD_CAT_ID":49094,"ELEMENT_SET_NO":999,"REV_AT_EPOCH":20430,"BSTAR":-0.0011254,"MEAN_MOTION_DOT":-3.92e-6,"MEAN_MOTION_DDOT":0},{"OBJECT_NAME":"ONEWEB-0309","OBJECT_ID":"2021-075W","EPOCH":"2025-10-29T13:07:25.898592","MEAN_MOTION":13.17649422,"ECCENTRICITY":0.0002102,"INCLINATION":87.9126,"RA_OF_ASC_NODE":51.7186,"ARG_OF_PERICENTER":94.2387,"MEAN_ANOMALY":265.8985,"EPHEMERIS_TYPE":0,"CLASSIFICATION_TYPE":"U","NORAD_CAT_ID":49095,"ELEMENT_SET_NO":999,"REV_AT_EPOCH":20320,"BSTAR":0.00027245,"MEAN_MOTION_DOT":1.19e-6,"MEAN_MOTION_DDOT":0},{"OBJECT_NAME":"ONEWEB-0310","OBJECT_ID":"2021-075X","EPOCH":"2025-10-29T13:00:02.121408","MEAN_MOTION":13.1244425,"ECCENTRICITY":0.0001869,"INCLINATION":87.8966,"RA_OF_ASC_NODE":36.5128,"ARG_OF_PERICENTER":99.0038,"MEAN_ANOMALY":261.1302,"EPHEMERIS_TYPE":0,"CLASSIFICATION_TYPE":"U","NORAD_CAT_ID":49096,"ELEMENT_SET_NO":999,"REV_AT_EPOCH":20493,"BSTAR":0.00019963,"MEAN_MOTION_DOT":8.5e-7,"MEAN_MOTION_DDOT":0}]
